{
  "type": "FeatureCollection",
  "features": [
    {
      "type": "Feature",
      "properties": {
        "norad_id": 37836,
        "name": "EUTELSAT 16A",
        "group": "eutelsat",
        "lat": -0.07337585406364826,
        "lon": -78.03842251251618,
        "alt_km": 35761.9188171726,
        "timestamp": "2025-12-23T11:34:47.852812+00:00",
        "meta_object_name": "EUTELSAT 16A",
        "meta_object_id": "2011-057A",
        "meta_epoch": "2025-12-23T02:56:07.495008",
        "meta_mean_motion": 1.00270362,
        "meta_eccentricity": 0.0005852,
        "meta_inclination": 0.0575,
        "meta_ra_of_asc_node": 344.0615,
        "meta_arg_of_pericenter": 289.5886,
        "meta_mean_anomaly": 238.2872,
        "meta_ephemeris_type": 0,
        "meta_classification_type": "U",
        "meta_norad_cat_id": 37836,
        "meta_element_set_no": 999,
        "meta_rev_at_epoch": 556,
        "meta_bstar": 0,
        "meta_mean_motion_dot": 1.25e-06,
        "meta_mean_motion_ddot": 0,
        "tle_line1": "1 37836U 11057A   25357.12230897  .00000125  00000+0  00000+0 0  9991",
        "tle_line2": "2 37836   0.0575 344.0615 0005852 289.5886 238.2872  1.00270362  5564"
      },
      "geometry": {
        "type": "Point",
        "coordinates": [
          -78.03842251251618,
          -0.07337585406364826
        ]
      }
    },
    {
      "type": "Feature",
      "properties": {
        "norad_id": 38992,
        "name": "EUTELSAT 21B",
        "group": "eutelsat",
        "lat": -0.07910100941998999,
        "lon": -72.44702160681786,
        "alt_km": 35772.93698104265,
        "timestamp": "2025-12-23T11:34:47.852823+00:00",
        "meta_object_name": "EUTELSAT 21B",
        "meta_object_id": "2012-062B",
        "meta_epoch": "2025-12-23T02:57:44.839296",
        "meta_mean_motion": 1.00270237,
        "meta_eccentricity": 0.0003255,
        "meta_inclination": 0.0669,
        "meta_ra_of_asc_node": 345.4736,
        "meta_arg_of_pericenter": 291.3257,
        "meta_mean_anomaly": 241.139,
        "meta_ephemeris_type": 0,
        "meta_classification_type": "U",
        "meta_norad_cat_id": 38992,
        "meta_element_set_no": 999,
        "meta_rev_at_epoch": 4806,
        "meta_bstar": 0,
        "meta_mean_motion_dot": 1.51e-06,
        "meta_mean_motion_ddot": 0,
        "tle_line1": "1 38992U 12062B   25357.12343564  .00000151  00000+0  00000+0 0  9997",
        "tle_line2": "2 38992   0.0669 345.4736 0003255 291.3257 241.1390  1.00270237 48060"
      },
      "geometry": {
        "type": "Point",
        "coordinates": [
          -72.44702160681786,
          -0.07910100941998999
        ]
      }
    },
    {
      "type": "Feature",
      "properties": {
        "norad_id": 39020,
        "name": "EUTELSAT 70B",
        "group": "eutelsat",
        "lat": -0.01783054767138139,
        "lon": -23.49257131885059,
        "alt_km": 35783.08541781795,
        "timestamp": "2025-12-23T11:34:47.852834+00:00",
        "meta_object_name": "EUTELSAT 70B",
        "meta_object_id": "2012-069A",
        "meta_epoch": "2025-12-23T03:11:43.499904",
        "meta_mean_motion": 1.00273212,
        "meta_eccentricity": 0.0004273,
        "meta_inclination": 0.0632,
        "meta_ra_of_asc_node": 343.024,
        "meta_arg_of_pericenter": 271.5168,
        "meta_mean_anomaly": 315.8106,
        "meta_ephemeris_type": 0,
        "meta_classification_type": "U",
        "meta_norad_cat_id": 39020,
        "meta_element_set_no": 999,
        "meta_rev_at_epoch": 4774,
        "meta_bstar": 0,
        "meta_mean_motion_dot": -2.2e-07,
        "meta_mean_motion_ddot": 0,
        "tle_line1": "1 39020U 12069A   25357.13314236 -.00000022  00000+0  00000+0 0  9990",
        "tle_line2": "2 39020   0.0632 343.0240 0004273 271.5168 315.8106  1.00273212 47743"
      },
      "geometry": {
        "type": "Point",
        "coordinates": [
          -23.49257131885059,
          -0.01783054767138139
        ]
      }
    },
    {
      "type": "Feature",
      "properties": {
        "norad_id": 39122,
        "name": "EUTELSAT 117 WEST A",
        "group": "eutelsat",
        "lat": 0.0029441926229334236,
        "lon": 149.1493192698413,
        "alt_km": 35792.911829490644,
        "timestamp": "2025-12-23T11:34:47.852845+00:00",
        "meta_object_name": "EUTELSAT 117 WEST A",
        "meta_object_id": "2013-012A",
        "meta_epoch": "2025-12-23T03:22:56.440128",
        "meta_mean_motion": 1.00270834,
        "meta_eccentricity": 0.0002648,
        "meta_inclination": 0.0239,
        "meta_ra_of_asc_node": 311.3216,
        "meta_arg_of_pericenter": 323.7158,
        "meta_mean_anomaly": 110.8436,
        "meta_ephemeris_type": 0,
        "meta_classification_type": "U",
        "meta_norad_cat_id": 39122,
        "meta_element_set_no": 999,
        "meta_rev_at_epoch": 4666,
        "meta_bstar": 0,
        "meta_mean_motion_dot": 8e-08,
        "meta_mean_motion_ddot": 0,
        "tle_line1": "1 39122U 13012A   25357.14093102  .00000008  00000+0  00000+0 0  9992",
        "tle_line2": "2 39122   0.0239 311.3216 0002648 323.7158 110.8436  1.00270834 46669"
      },
      "geometry": {
        "type": "Point",
        "coordinates": [
          149.1493192698413,
          0.0029441926229334236
        ]
      }
    },
    {
      "type": "Feature",
      "properties": {
        "norad_id": 39163,
        "name": "EUTELSAT 7B",
        "group": "eutelsat",
        "lat": -0.08942136110705412,
        "lon": -87.08194011416956,
        "alt_km": 35773.84846816191,
        "timestamp": "2025-12-23T11:34:47.852856+00:00",
        "meta_object_name": "EUTELSAT 7B",
        "meta_object_id": "2013-022A",
        "meta_epoch": "2025-12-23T02:53:37.732704",
        "meta_mean_motion": 1.00271334,
        "meta_eccentricity": 0.0004482,
        "meta_inclination": 0.0653,
        "meta_ra_of_asc_node": 4.8865,
        "meta_arg_of_pericenter": 317.4928,
        "meta_mean_anomaly": 179.9359,
        "meta_ephemeris_type": 0,
        "meta_classification_type": "U",
        "meta_norad_cat_id": 39163,
        "meta_element_set_no": 999,
        "meta_rev_at_epoch": 4618,
        "meta_bstar": 0,
        "meta_mean_motion_dot": 6.9e-07,
        "meta_mean_motion_ddot": 0,
        "tle_line1": "1 39163U 13022A   25357.12057561  .00000069  00000+0  00000+0 0  9992",
        "tle_line2": "2 39163   0.0653   4.8865 0004482 317.4928 179.9359  1.00271334 46184"
      },
      "geometry": {
        "type": "Point",
        "coordinates": [
          -87.08194011416956,
          -0.08942136110705412
        ]
      }
    },
    {
      "type": "Feature",
      "properties": {
        "norad_id": 39612,
        "name": "EXPRESS-AT1",
        "group": "eutelsat",
        "lat": -0.02432418654559155,
        "lon": -38.04098734353355,
        "alt_km": 35789.131424443236,
        "timestamp": "2025-12-23T11:34:47.852871+00:00",
        "meta_object_name": "EXPRESS-AT1",
        "meta_object_id": "2014-010A",
        "meta_epoch": "2025-12-22T10:00:26.265888",
        "meta_mean_motion": 1.00271252,
        "meta_eccentricity": 7.176e-05,
        "meta_inclination": 0.023,
        "meta_ra_of_asc_node": 347.1334,
        "meta_arg_of_pericenter": 146.8279,
        "meta_mean_anomaly": 163.3666,
        "meta_ephemeris_type": 0,
        "meta_classification_type": "U",
        "meta_norad_cat_id": 39612,
        "meta_element_set_no": 999,
        "meta_rev_at_epoch": 4304,
        "meta_bstar": 0,
        "meta_mean_motion_dot": 0,
        "meta_mean_motion_ddot": 0,
        "tle_line1": "1 39612U 14010A   25356.41697067  .00000000  00000+0  00000+0 0  9996",
        "tle_line2": "2 39612   0.0230 347.1334 0000717 146.8279 163.3666  1.00271252 43047"
      },
      "geometry": {
        "type": "Point",
        "coordinates": [
          -38.04098734353355,
          -0.02432418654559155
        ]
      }
    },
    {
      "type": "Feature",
      "properties": {
        "norad_id": 39613,
        "name": "EXPRESS-AT2",
        "group": "eutelsat",
        "lat": 0.02109598733240385,
        "lon": 45.837386425325754,
        "alt_km": 35789.05562684189,
        "timestamp": "2025-12-23T11:34:47.852889+00:00",
        "meta_object_name": "EXPRESS-AT2",
        "meta_object_id": "2014-010B",
        "meta_epoch": "2025-12-23T05:14:16.712736",
        "meta_mean_motion": 1.00273512,
        "meta_eccentricity": 0.0001469,
        "meta_inclination": 0.015,
        "meta_ra_of_asc_node": 297.8431,
        "meta_arg_of_pericenter": 344.6233,
        "meta_mean_anomaly": 27.9718,
        "meta_ephemeris_type": 0,
        "meta_classification_type": "U",
        "meta_norad_cat_id": 39613,
        "meta_element_set_no": 999,
        "meta_rev_at_epoch": 4273,
        "meta_bstar": 0,
        "meta_mean_motion_dot": -2.6e-06,
        "meta_mean_motion_ddot": 0,
        "tle_line1": "1 39613U 14010B   25357.21824899 -.00000260  00000+0  00000+0 0  9990",
        "tle_line2": "2 39613   0.0150 297.8431 0001469 344.6233  27.9718  1.00273512 42730"
      },
      "geometry": {
        "type": "Point",
        "coordinates": [
          45.837386425325754,
          0.02109598733240385
        ]
      }
    }
  ]
}